BEIDOU-2 M4             
1 38251U 12018B   26072.00546832 -.00000031  00000+0  00000+0 0  9999
2 38251  55.7402 307.3399 0012191 287.4004  72.5220  1.86229915 94157
BEIDOU-2 M6             
1 38775U 12050B   26071.71561593  .00000008  00000+0  00000+0 0  9997
2 38775  56.4609  66.0825 0014127 342.5009  17.4715  1.86231021 91512
BEIDOU-2 G6             
1 38953U 12059A   26072.87205520 -.00000174  00000+0  00000+0 0  9992
2 38953   4.1785  74.5404 0010540 306.4198 188.4140  1.00276062 48956
SHIJIAN-16 (SJ-16)      
1 39358U 13057A   26072.98653351  .00003311  00000+0  32554-3 0  9990
2 39358  74.9729 176.9542 0015320 101.4806 258.8104 14.92370565672143
BEIDOU-3S IGSO-1S       
1 40549U 15019A   26072.58905230 -.00000139  00000+0  00000+0 0  9999
2 40549  49.3736 296.6132 0035647 190.1678 352.9044  1.00272189 40115
BEIDOU-3 M10            
1 43246U 18029B   26070.15695869 -.00000040  00000+0  00000+0 0  9996
2 43246  54.2796 303.4048 0005206  25.3248 334.7506  1.86229238 54056
BEIDOU-2 IGSO-7         
1 43539U 18057A   26072.66390986 -.00000153  00000+0  00000+0 0  9997
2 43539  55.1863 163.8949 0100561 236.7840 122.3454  1.00280738 28175
BEIDOU-3 M5             
1 43581U 18062A   26071.45501707 -.00000011  00000+0  00000+0 0  9994
2 43581  54.0877 185.5927 0002388 304.9134  55.0505  1.86228824 51834
BEIDOU-3 M6             
1 43582U 18062B   26071.85493390 -.00000012  00000+0  00000+0 0  9998
2 43582  54.0872 185.5682 0005988  41.7221 318.3092  1.86227825 51847
BEIDOU-3 M12            
1 43602U 18067A   26071.25639623 -.00000011  00000+0  00000+0 0  9990
2 43602  54.1816 184.3275 0008368  38.9780 321.0706  1.86227850 51310
BEIDOU-2 G8             
1 44231U 19027A   26072.95525557 -.00000247  00000+0  00000+0 0  9995
2 44231   1.4155  74.2587 0011489 274.6914 311.0157  1.00273975 25123
BEIDOU-3 IGSO-2         
1 44337U 19035A   26057.68879618 -.00000176  00000+0  00000+0 0  9995
2 44337  55.2338 159.8353 0038734 206.4752 153.7223  1.00247364 24561
BEIDOU-3 M24            
1 44542U 19061A   26071.59046001 -.00000011  00000+0  00000+0 0  9998
2 44542  54.3985 185.9849 0008561  19.8304 340.1884  1.86229082 43995
BEIDOU-3 M23            
1 44543U 19061B   26071.13900043 -.00000009  00000+0  00000+0 0  9991
2 44543  54.3975 185.9688 0004976  10.6705 318.8703  1.86227389 43985
BEIDOU-3 IGSO-3         
1 44709U 19073A   26069.98346678 -.00000143  00000+0  00000+0 0  9995
2 44709  54.9673 281.9576 0040728 188.7089 171.2538  1.00267242 23477
BEIDOU-3 M22            
1 44793U 19078A   26071.96661479 -.00000026  00000+0  00000+0 0  9993
2 44793  54.0225 303.2142 0007468  38.0258 322.0804  1.86232299 42853
BEIDOU-3 M21            
1 44794U 19078B   26071.03242650 -.00000032  00000+0  00000+0 0  9995
2 44794  53.9966 303.2101 0005425  33.1471 326.9381  1.86227925 42845
KONDOR-FKA NO. 2        
1 62138U 24223A   26072.96903080  .00002638  00000+0  12670-3 0  9992
2 62138  97.4351 277.7975 0001697  86.2286 273.9143 15.19712795 71240
