[ {"OBJECT_NAME": "KONDOR-FKA NO. 2", "NORAD_CAT_ID": 62138, "MEAN_MOTION": 15.19712795, "ECCENTRICITY": 0.0001697, "INCLINATION": 97.4351, "RA_OF_ASC_NODE": 277.7975, "ARG_OF_PERICENTER": 86.2286, "MEAN_ANOMALY": 273.9143, "BSTAR": 0.00012670000000000002, "EPOCH": "2026-03-13T23:15:24"}, {"OBJECT_NAME": "BEIDOU-2 M4 (C12)", "NORAD_CAT_ID": 38251, "MEAN_MOTION": 1.86229915, "ECCENTRICITY": 0.0012191, "INCLINATION": 55.7402, "RA_OF_ASC_NODE": 307.3399, "ARG_OF_PERICENTER": 287.4004, "MEAN_ANOMALY": 72.522, "BSTAR": 0.0, "EPOCH": "2026-03-13T00:07:52"}, {"OBJECT_NAME": "BEIDOU-3 M24 (C46)", "NORAD_CAT_ID": 44542, "MEAN_MOTION": 1.86229082, "ECCENTRICITY": 0.0008561, "INCLINATION": 54.3985, "RA_OF_ASC_NODE": 185.9849, "ARG_OF_PERICENTER": 19.8304, "MEAN_ANOMALY": 340.1884, "BSTAR": 0.0, "EPOCH": "2026-03-12T14:10:15"}, {"OBJECT_NAME": "BEIDOU-3 M23 (C45)", "NORAD_CAT_ID": 44543, "MEAN_MOTION": 1.86227389, "ECCENTRICITY": 0.0004976, "INCLINATION": 54.3975, "RA_OF_ASC_NODE": 185.9688, "ARG_OF_PERICENTER": 10.6705, "MEAN_ANOMALY": 318.8703, "BSTAR": 0.0, "EPOCH": "2026-03-12T03:20:09"}, {"OBJECT_NAME": "BEIDOU-3 IGSO-3 (C40)", "NORAD_CAT_ID": 44709, "MEAN_MOTION": 1.00267242, "ECCENTRICITY": 0.0040728, "INCLINATION": 54.9673, "RA_OF_ASC_NODE": 281.9576, "ARG_OF_PERICENTER": 188.7089, "MEAN_ANOMALY": 171.2538, "BSTAR": 0.0, "EPOCH": "2026-03-10T23:36:11"}, {"OBJECT_NAME": "BEIDOU-3 M5 (C23)", "NORAD_CAT_ID": 43581, "MEAN_MOTION": 1.86228824, "ECCENTRICITY": 0.0002388, "INCLINATION": 54.0877, "RA_OF_ASC_NODE": 185.5927, "ARG_OF_PERICENTER": 304.9134, "MEAN_ANOMALY": 55.0505, "BSTAR": 0.0, "EPOCH": "2026-03-12T10:55:13"}, {"OBJECT_NAME": "BEIDOU-3 M22 (C44)", "NORAD_CAT_ID": 44793, "MEAN_MOTION": 1.86232299, "ECCENTRICITY": 0.0007468, "INCLINATION": 54.0225, "RA_OF_ASC_NODE": 303.2142, "ARG_OF_PERICENTER": 38.0258, "MEAN_ANOMALY": 322.0804, "BSTAR": 0.0, "EPOCH": "2026-03-12T23:11:55"}, {"OBJECT_NAME": "BEIDOU-3 M6 (C24)", "NORAD_CAT_ID": 43582, "MEAN_MOTION": 1.86227825, "ECCENTRICITY": 0.0005988, "INCLINATION": 54.0872, "RA_OF_ASC_NODE": 185.5682, "ARG_OF_PERICENTER": 41.7221, "MEAN_ANOMALY": 318.3092, "BSTAR": 0.0, "EPOCH": "2026-03-12T20:31:06"}, {"OBJECT_NAME": "BEIDOU-3 M21 (C43)", "NORAD_CAT_ID": 44794, "MEAN_MOTION": 1.86227925, "ECCENTRICITY": 0.0005425, "INCLINATION": 53.9966, "RA_OF_ASC_NODE": 303.2101, "ARG_OF_PERICENTER": 33.1471, "MEAN_ANOMALY": 326.9381, "BSTAR": 0.0, "EPOCH": "2026-03-12T00:46:41"}, {"OBJECT_NAME": "BEIDOU-2 G8 (C01)", "NORAD_CAT_ID": 44231, "MEAN_MOTION": 1.00273975, "ECCENTRICITY": 0.0011489, "INCLINATION": 1.4155, "RA_OF_ASC_NODE": 74.2587, "ARG_OF_PERICENTER": 274.6914, "MEAN_ANOMALY": 311.0157, "BSTAR": 0.0, "EPOCH": "2026-03-13T22:55:34"}, {"OBJECT_NAME": "BEIDOU-3 IGSO-2 (C39)", "NORAD_CAT_ID": 44337, "MEAN_MOTION": 1.00247364, "ECCENTRICITY": 0.0038734, "INCLINATION": 55.2338, "RA_OF_ASC_NODE": 159.8353, "ARG_OF_PERICENTER": 206.4752, "MEAN_ANOMALY": 153.7223, "BSTAR": 0.0, "EPOCH": "2026-02-26T16:31:51"}, {"OBJECT_NAME": "BEIDOU-3 M10 (C30)", "NORAD_CAT_ID": 43246, "MEAN_MOTION": 1.86229238, "ECCENTRICITY": 0.0005206, "INCLINATION": 54.2796, "RA_OF_ASC_NODE": 303.4048, "ARG_OF_PERICENTER": 25.3248, "MEAN_ANOMALY": 334.7506, "BSTAR": 0.0, "EPOCH": "2026-03-11T03:46:01"}, {"OBJECT_NAME": "BEIDOU-2 IGSO-7 (C16)", "NORAD_CAT_ID": 43539, "MEAN_MOTION": 1.00280738, "ECCENTRICITY": 0.0100561, "INCLINATION": 55.1863, "RA_OF_ASC_NODE": 163.8949, "ARG_OF_PERICENTER": 236.784, "MEAN_ANOMALY": 122.3454, "BSTAR": 0.0, "EPOCH": "2026-03-13T15:56:01"}, {"OBJECT_NAME": "BEIDOU-2 M6 (C14)", "NORAD_CAT_ID": 38775, "MEAN_MOTION": 1.86231021, "ECCENTRICITY": 0.0014127, "INCLINATION": 56.4609, "RA_OF_ASC_NODE": 66.0825, "ARG_OF_PERICENTER": 342.5009, "MEAN_ANOMALY": 17.4715, "BSTAR": 0.0, "EPOCH": "2026-03-12T17:10:29"}, {"OBJECT_NAME": "BEIDOU-2 G6 (C02)", "NORAD_CAT_ID": 38953, "MEAN_MOTION": 1.00276062, "ECCENTRICITY": 0.001054, "INCLINATION": 4.1785, "RA_OF_ASC_NODE": 74.5404, "ARG_OF_PERICENTER": 306.4198, "MEAN_ANOMALY": 188.414, "BSTAR": 0.0, "EPOCH": "2026-03-13T20:55:45"}, {"OBJECT_NAME": "BEIDOU-3S IGSO-1S (C31)", "NORAD_CAT_ID": 40549, "MEAN_MOTION": 1.00272189, "ECCENTRICITY": 0.0035647, "INCLINATION": 49.3736, "RA_OF_ASC_NODE": 296.6132, "ARG_OF_PERICENTER": 190.1678, "MEAN_ANOMALY": 352.9044, "BSTAR": 0.0, "EPOCH": "2026-03-13T14:08:14"}, {"OBJECT_NAME": "BEIDOU-3 M12 (C26)", "NORAD_CAT_ID": 43602, "MEAN_MOTION": 1.8622785, "ECCENTRICITY": 0.0008368, "INCLINATION": 54.1816, "RA_OF_ASC_NODE": 184.3275, "ARG_OF_PERICENTER": 38.978, "MEAN_ANOMALY": 321.0706, "BSTAR": 0.0, "EPOCH": "2026-03-12T06:09:12"}, {"OBJECT_NAME": "SHIJIAN-16 (SJ-16)", "NORAD_CAT_ID": 39358, "MEAN_MOTION": 14.92370565, "ECCENTRICITY": 0.001532, "INCLINATION": 74.9729, "RA_OF_ASC_NODE": 176.9542, "ARG_OF_PERICENTER": 101.4806, "MEAN_ANOMALY": 258.8104, "BSTAR": 0.00032554, "EPOCH": "2026-03-13T23:40:36"}]